[{"OBJECT_NAME":"TEIKYOSAT-4 (OORURI)","OBJECT_ID":"2021-102B","EPOCH":"2026-03-09T16:12:29.535840","MEAN_MOTION":15.09119208,"ECCENTRICITY":0.00103447,"INCLINATION":97.3797,"RA_OF_ASC_NODE":101.9931,"ARG_OF_PERICENTER":276.5421,"MEAN_ANOMALY":83.463,"EPHEMERIS_TYPE":0,"CLASSIFICATION_TYPE":"U","NORAD_CAT_ID":49396,"ELEMENT_SET_NO":999,"REV_AT_EPOCH":23771,"BSTAR":0.00015739844,"MEAN_MOTION_DOT":2.438e-5,"MEAN_MOTION_DDOT":0},{"OBJECT_NAME":"STARLINK-35177","OBJECT_ID":"2025-211X","EPOCH":"2026-03-09T15:56:19.993056","MEAN_MOTION":15.05649843,"ECCENTRICITY":0.00016962,"INCLINATION":97.6037,"RA_OF_ASC_NODE":114.1278,"ARG_OF_PERICENTER":107.8979,"MEAN_ANOMALY":252.2432,"EPHEMERIS_TYPE":0,"CLASSIFICATION_TYPE":"U","NORAD_CAT_ID":65673,"ELEMENT_SET_NO":999,"REV_AT_EPOCH":2704,"BSTAR":0.00045786336,"MEAN_MOTION_DOT":6.552e-5,"MEAN_MOTION_DDOT":0}]
