TEIKYOSAT-4 (OORURI)    
1 49396U 21102B   26068.67534185  .00002438  00000+0  15740-3 0  9994
2 49396  97.3797 101.9931 0010345 276.5421  83.4630 15.09119208237719
STARLINK-35177          
1 65673U 25211X   26068.66412028  .00006552  00000+0  45786-3 0  9999
2 65673  97.6037 114.1278 0001696 107.8979 252.2432 15.05649843 27046
